OBJECT_NAME,OBJECT_ID,EPOCH,MEAN_MOTION,ECCENTRICITY,INCLINATION,RA_OF_ASC_NODE,ARG_OF_PERICENTER,MEAN_ANOMALY,EPHEMERIS_TYPE,CLASSIFICATION_TYPE,NORAD_CAT_ID,ELEMENT_SET_NO,REV_AT_EPOCH,BSTAR,MEAN_MOTION_DOT,MEAN_MOTION_DDOT
TIANYAN 01,2019-093C,2026-05-19T23:23:49.061760,14.86469329,.00136015,97.7538,212.8943,173.1651,186.9753,0,U,44881,999,34722,.11801865E-3,.991E-5,0
TIANYAN 02,2019-093D,2026-05-19T22:18:50.082048,15.04832150,.00153771,97.7927,234.4596,117.8710,242.4076,0,U,44882,999,34836,.34205948E-3,.4781E-4,0
CBERS 4A,2019-093E,2026-05-19T23:52:36.613344,14.81601858,.00002351,97.7504,208.1357,325.3435,34.7763,0,U,44883,999,34690,.38441882E-4,.252E-5,0
WEILAI 1R,2019-093F,2026-05-19T23:31:09.662016,15.00366588,.00161839,97.7834,229.8338,122.4627,237.8164,0,U,44884,999,34819,.24845026E-3,.3066E-4,0
FLORIPASAT-1,2019-093G,2026-05-19T22:39:56.870208,15.03527579,.00122982,97.7902,233.9752,161.9176,198.2489,0,U,44885,999,34840,.23925162E-3,.3206E-4,0
SHUNTIAN,2019-093H,2026-05-19T23:09:07.727328,14.94995180,.00122999,97.8001,228.2735,153.6768,206.5080,0,U,44886,999,34796,.84148815E-4,.863E-5,0
ELEKTRO-L 3,2019-095A,2026-05-19T11:13:01.143840,1.00270736,.00009139,0.1829,80.0840,316.0717,85.1807,0,U,44903,999,2342,0,-.97E-6,0
GONETS-M 14,2019-096A,2026-05-19T22:54:09.047232,12.42868799,.00123585,82.5212,102.1433,210.9596,149.0757,0,U,44905,999,29017,-.18151177E-4,.7E-7,0
GONETS-M 15,2019-096B,2026-05-19T21:40:36.980256,12.42870219,.00139752,82.5231,102.6319,236.2173,123.7576,0,U,44906,999,29013,.20294949E-3,.38E-6,0
GONETS-M 16,2019-096C,2026-05-20T00:14:59.397216,12.42890825,.00097051,82.5178,101.5311,283.1577,76.8420,0,U,44907,999,29013,.16617737E-3,.33E-6,0
RS-44 & BREEZE-KM R/B,2019-096E,2026-05-19T20:38:05.662464,12.79748339,.02168995,82.5232,358.5322,210.3799,148.4586,0,U,44909,999,29872,.31578331E-4,.18E-6,0
JILIN-1 KUANFU 01,2020-003A,2026-05-19T22:26:44.405088,15.10547206,.00107935,97.5033,214.4445,47.4660,312.7479,0,U,45016,999,35106,.12422476E-3,.1988E-4,0
XINGYUN-2 01,2020-028A,2026-05-19T22:40:26.525280,15.11671933,.00076654,97.4862,132.9096,310.1340,49.9218,0,U,45602,999,33057,.46058362E-4,.72E-5,0
XINGYUN-2 02,2020-028B,2026-05-19T23:37:51.855744,15.11407458,.00115451,97.5072,146.4743,18.6210,341.5441,0,U,45603,999,33057,.46422268E-4,.721E-5,0
HAIYANG-1D,2020-036A,2026-05-19T23:55:01.784352,14.34162605,.00017185,98.4554,82.2918,211.5151,148.5932,0,U,45721,999,31093,.44906979E-4,.83E-6,0
M2 PATHFINDER,2020-037E,2026-05-19T18:46:54.502464,15.04537414,.00099656,97.8159,330.6972,245.4969,114.5217,0,U,45727,999,32122,.7660919E-4,.101E-4,0
GAOFEN DUOMO (GFDM),2020-042A,2026-05-19T22:54:37.244736,14.76836015,.00114225,97.7759,200.8653,156.9505,203.2220,0,U,45856,999,31684,.70355442E-4,.445E-5,0
ZIYUAN 3-03 (ZY 3-03),2020-051A,2026-05-19T23:14:23.621280,15.21277025,.00058612,97.2846,208.6033,55.4146,304.7642,0,U,45939,999,32305,.12670881E-4,.217E-5,0
NEMO-HD,2020-061F,2026-05-19T22:37:42.391200,15.43968889,.00026118,97.1931,202.1912,114.9473,245.2048,0,U,46277,999,31762,.18024372E-3,.8121E-4,0
NAPA-1,2020-061BA,2026-05-19T23:37:29.562816,15.64261979,.00018225,97.2479,213.3164,139.5995,220.5400,0,U,46320,999,31732,.54172204E-3,.51711E-3,0
JILIN-1 GAOFEN 3E,2020-065D,2026-05-19T23:14:28.559904,15.60263452,.00101109,97.2276,191.9926,255.3908,104.6229,0,U,46457,999,31535,.53514946E-3,.43815E-3,0
JILIN-1 GAOFEN 3F,2020-065E,2026-05-19T22:45:47.376000,15.57999068,.00117366,97.2231,189.4322,244.4220,115.5823,0,U,46458,999,31530,.50535547E-3,.3798E-3,0
JILIN-1 GAOFEN 3G,2020-065F,2026-05-19T22:50:35.983104,15.66252528,.00127151,97.2306,195.8148,150.4030,209.7952,0,U,46459,999,31551,.64107939E-3,.66633E-3,0
JILIN-1 GAOFEN 3H,2020-065G,2026-05-19T22:24:43.516800,15.63683553,.00087078,97.2249,192.2750,100.0014,260.2228,0,U,46460,999,31546,.60596263E-3,.5669E-3,0
HAIYANG-2C,2020-066A,2026-05-19T23:17:58.365024,13.83372387,.00099392,65.9978,285.5353,239.5789,120.4298,0,U,46469,999,28559,.12504465E-3,.56E-6,0
HJ-2A,2020-067A,2026-05-19T21:45:49.248000,14.76570210,.00036913,97.8828,218.9451,22.0928,338.0441,0,U,46478,999,30408,.42526117E-4,.247E-5,0
HJ-2B,2020-067B,2026-05-19T22:38:11.798304,14.76516717,.00012586,97.8892,219.9813,77.1773,282.9578,0,U,46479,999,30409,.49455104E-4,.295E-5,0
