TIANYAN 01              
1 44881U 19093C   26139.97487340  .00000991  00000+0  11802-3 0  9993
2 44881  97.7538 212.8943 0013601 173.1651 186.9753 14.86469329347229
TIANYAN 02              
1 44882U 19093D   26139.92974632  .00004781  00000+0  34206-3 0  9998
2 44882  97.7927 234.4596 0015377 117.8710 242.4076 15.04832150348368
CBERS 4A                
1 44883U 19093E   26139.99486821  .00000252  00000+0  38442-4 0  9990
2 44883  97.7504 208.1357 0000235 325.3435  34.7763 14.81601858346906
WEILAI 1R               
1 44884U 19093F   26139.97997294  .00003066  00000+0  24845-3 0  9997
2 44884  97.7834 229.8338 0016183 122.4627 237.8164 15.00366588348194
FLORIPASAT-1            
1 44885U 19093G   26139.94440822  .00003206  00000+0  23925-3 0  9999
2 44885  97.7902 233.9752 0012298 161.9176 198.2489 15.03527579348403
SHUNTIAN                
1 44886U 19093H   26139.96467277  .00000863  00000+0  84149-4 0  9997
2 44886  97.8001 228.2735 0012299 153.6768 206.5080 14.94995180347965
ELEKTRO-L 3             
1 44903U 19095A   26139.46737435 -.00000097  00000+0  00000+0 0  9999
2 44903   0.1829  80.0840 0000913 316.0717  85.1807  1.00270736 23426
GONETS-M 14             
1 44905U 19096A   26139.95427138  .00000007  00000+0 -18151-4 0  9994
2 44905  82.5212 102.1433 0012358 210.9596 149.0757 12.42868799290177
GONETS-M 15             
1 44906U 19096B   26139.90320579  .00000038  00000+0  20295-3 0  9995
2 44906  82.5231 102.6319 0013975 236.2173 123.7576 12.42870219290139
GONETS-M 16             
1 44907U 19096C   26140.01040969  .00000033  00000+0  16618-3 0  9991
2 44907  82.5178 101.5311 0009705 283.1577  76.8420 12.42890825290136
RS-44 & BREEZE-KM R/B   
1 44909U 19096E   26139.85978776  .00000018  00000+0  31578-4 0  9995
2 44909  82.5232 358.5322 0216899 210.3799 148.4586 12.79748339298721
JILIN-1 KUANFU 01       
1 45016U 20003A   26139.93523617  .00001988  00000+0  12422-3 0  9997
2 45016  97.5033 214.4445 0010793  47.4660 312.7479 15.10547206351065
XINGYUN-2 01            
1 45602U 20028A   26139.94475145  .00000720  00000+0  46058-4 0  9994
2 45602  97.4862 132.9096 0007665 310.1340  49.9218 15.11671933330579
XINGYUN-2 02            
1 45603U 20028B   26139.98462796  .00000721  00000+0  46422-4 0  9993
2 45603  97.5072 146.4743 0011545  18.6210 341.5441 15.11407458330579
HAIYANG-1D              
1 45721U 20036A   26139.99654843  .00000083  00000+0  44907-4 0  9997
2 45721  98.4554  82.2918 0001718 211.5151 148.5932 14.34162605310939
M2 PATHFINDER           
1 45727U 20037E   26139.78257526  .00001010  00000+0  76609-4 0  9993
2 45727  97.8159 330.6972 0009965 245.4969 114.5217 15.04537414321229
GAOFEN DUOMO (GFDM)     
1 45856U 20042A   26139.95459774  .00000445  00000+0  70355-4 0  9993
2 45856  97.7759 200.8653 0011422 156.9505 203.2220 14.76836015316843
ZIYUAN 3-03 (ZY 3-03)   
1 45939U 20051A   26139.96832895  .00000217  00000+0  12671-4 0  9999
2 45939  97.2846 208.6033 0005861  55.4146 304.7642 15.21277025323056
NEMO-HD                 
1 46277U 20061F   26139.94285175  .00008121  00000+0  18024-3 0  9996
2 46277  97.1931 202.1912 0002611 114.9473 245.2048 15.43968889317629
NAPA-1                  
1 46320U 20061BA  26139.98436994  .00051711  00000+0  54172-3 0  9993
2 46320  97.2479 213.3164 0001822 139.5995 220.5400 15.64261979317328
JILIN-1 GAOFEN 3E       
1 46457U 20065D   26139.96838611  .00043815  00000+0  53515-3 0  9994
2 46457  97.2276 191.9926 0010110 255.3908 104.6229 15.60263452315358
JILIN-1 GAOFEN 3F       
1 46458U 20065E   26139.94846500  .00037980  00000+0  50536-3 0  9995
2 46458  97.2231 189.4322 0011736 244.4220 115.5823 15.57999068315304
JILIN-1 GAOFEN 3G       
1 46459U 20065F   26139.95180536  .00066633  00000+0  64108-3 0  9994
2 46459  97.2306 195.8148 0012715 150.4030 209.7952 15.66252528315513
JILIN-1 GAOFEN 3H       
1 46460U 20065G   26139.93383700  .00056690  00000+0  60596-3 0  9991
2 46460  97.2249 192.2750 0008707 100.0014 260.2228 15.63683553315465
HAIYANG-2C              
1 46469U 20066A   26139.97081441  .00000056  00000+0  12504-3 0  9993
2 46469  65.9978 285.5353 0009939 239.5789 120.4298 13.83372387285599
HJ-2A                   
1 46478U 20067A   26139.90682000  .00000247  00000+0  42526-4 0  9995
2 46478  97.8828 218.9451 0003691  22.0928 338.0441 14.76570210304086
HJ-2B                   
1 46479U 20067B   26139.94319211  .00000295  00000+0  49455-4 0  9992
2 46479  97.8892 219.9813 0001258  77.1773 282.9578 14.76516717304098
